CUTE-1 (CO-55)          
1 27844U 03031E   25227.92204665  .00000265  00000+0  13433-3 0  9993
2 27844  98.6776 235.3313 0009557 359.8176   0.2997 14.24041023148220
CUBESAT XI-IV (CO-57)   
1 27848U 03031J   25227.48028585  .00000232  00000+0  12138-3 0  9998
2 27848  98.6806 234.8502 0009854  18.3111 341.8420 14.23369256147930
CUBESAT XI-V            
1 28895U 05043F   25227.85479015  .00001527  00000+0  25564-3 0  9990
2 28895  98.2585  13.0855 0015683  93.9674 266.3325 14.71213426 56834
CUTE-1.7+APD II (CO-65) 
1 32785U 08021C   25228.36838579  .00003958  00000+0  28302-3 0  9996
2 32785  97.7908 200.0800 0009139 356.5783   3.5379 15.05025407939340
CANX-2                  
1 32790U 08021H   25227.79165865  .00004177  00000+0  32154-3 0  9993
2 32790  97.8268 198.0826 0010379   0.5055 359.6178 15.02188957938906
SEEDS II (CO-66)        
1 32791U 08021J   25228.40523615  .00010673  00000+0  49616-3 0  9993
2 32791  97.7330 210.0436 0001348 321.5142  38.5996 15.20166407940873
SWISSCUBE               
1 35932U 09051B   25228.20831720  .00000954  00000+0  20243-3 0  9990
2 35932  98.4214 125.6890 0008292  82.1717 278.0424 14.61471250844633
BEESAT-1                
1 35933U 09051C   25228.27873665  .00000791  00000+0  17180-3 0  9997
2 35933  98.4145 125.9934 0006691  93.1575 267.0391 14.60865216844734
ITUPSAT1                
1 35935U 09051E   25228.14590322  .00000719  00000+0  16104-3 0  9996
2 35935  98.4239 125.3428 0008874 101.8934 258.3261 14.59653726844258
TISAT 1                 
1 36799U 10035E   25228.32055883  .00010981  00000+0  54245-3 0  9997
2 36799  98.0527 146.6457 0002436 180.1481 179.9751 15.18058059821448
AEROCUBE 4.5A           
1 38767U 12048K   25228.36066614  .00024386  00000+0  59441-3 0  9995
2 38767  64.6482 358.9790 0095215 259.0831  99.9578 15.36226875325220
STRAND-1                
1 39090U 13009E   25228.43258019  .00000271  00000+0  10607-3 0  9991
2 39090  98.3848  51.3556 0009836  65.4657 294.7554 14.36862070653318
BRITE-AUSTRIA           
1 39091U 13009F   25227.48716636  .00000168  00000+0  72079-4 0  9997
2 39091  98.3908  49.6792 0011426  74.9394 285.3056 14.36339530653176
NEE-01 PEGASO           
1 39151U 13018B   25228.29890005  .00002777  00000+0  28523-3 0  9999
2 39151  98.0811 358.7094 0014483  88.4096 271.8780 14.91171035665236
POPACS 1                
1 39268U 13055D   25228.37944416  .00087418  89844-6  64606-3 0  9991
2 39268  80.9671   2.7581 0208424 108.4945 253.9075 15.49112873626562
POPACS 2                
1 39269U 13055E   25228.14209973  .00020477  00000+0  39031-3 0  9995
2 39269  80.9960 130.0437 0470840  84.7400 280.7335 14.77575584619161
POPACS 3                
1 39270U 13055F   25227.90576822  .00006405  00000+0  16252-3 0  9995
2 39270  81.0048 198.4651 0577574 275.2887  78.2691 14.49239567594238
ZACUBE-1 (TSHEPISOSAT)  
1 39417U 13066B   25227.83266314  .00004496  00000+0  38662-3 0  9991
2 39417  97.7847 184.5296 0043606 184.2966 175.7887 14.97182487634971
WNISAT-1                
1 39423U 13066H   25228.36934774  .00001144  00000+0  21794-3 0  9994
2 39423  97.6840  35.0351 0166461 111.7934 250.1070 14.57238555622532
TRITON-1                
1 39427U 13066M   25228.31852635  .00001966  00000+0  25144-3 0  9993
2 39427  97.8306 140.3762 0094838 145.7505 214.9873 14.79356470629166
GOMX-1                  
1 39430U 13066Q   25228.31764745  .00001427  00000+0  22719-3 0  9998
2 39430  97.6772  82.8111 0131481 336.2506  23.2666 14.67876089625344
CUBEBUG-2 (LO-74)       
1 39440U 13066AA  25228.36362403  .00003167  00000+0  32017-3 0  9994
2 39440  97.8512 172.4822 0060263 317.5987  42.0582 14.90410838632737
NEE-02 KRYSAOR          
1 39441U 13066AB  25228.32688596  .00002455  00000+0  28512-3 0  9999
2 39441  97.8559 165.6955 0068298 350.0289   9.9565 14.84651446632090
FUNCUBE-1 (AO-73)       
1 39444U 13066AE  25228.39987118  .00004649  00000+0  34277-3 0  9993
2 39444  97.7848 190.6265 0042253 154.9735 205.3550 15.03090832634361
UWE-3                   
1 39446U 13066AG  25228.28780595  .00003660  00000+0  34556-3 0  9995
2 39446  97.8275 178.8705 0050739 253.8055 105.7578 14.93413510632605
BRITE-CA1 (TORONTO)     
1 40020U 14033L   25228.35916916  .00001268  00000+0  20130-3 0  9991
2 40020  97.9341 358.8502 0080145 171.8055 188.4483 14.71748135597476
DUCHIFAT-1              
1 40021U 14033M   25228.02914013  .00020499  00000+0  68217-3 0  9997
2 40021  98.0946 248.3503 0010191  89.2951 270.9456 15.31141006608634
NANOSATC-BR1            
1 40024U 14033Q   25227.92726810  .00010622  00000+0  49927-3 0  9998
2 40024  98.0936 230.6070 0006043 145.2091 214.9538 15.19786380607430
QB50P1                  
1 40025U 14033R   25228.22514952  .00006473  00000+0  38704-3 0  9995
2 40025  98.0883 214.6389 0010452 174.4570 185.6776 15.11402245607369
QB50P2                  
1 40032U 14033Y   25227.89467601  .00006171  00000+0  39301-3 0  9992
2 40032  98.0487 202.5856 0010039 126.9465 233.2683 15.09114082606528
PERSEUS-M2              
1 40037U 14033AD  25228.35691464  .00001277  00000+0  12543-3 0  9996
2 40037  97.9571 168.7623 0011066 224.9202 135.1123 14.93948126605747
PERSEUS-M1              
1 40039U 14033AF  25228.41049000  .00001403  00000+0  13726-3 0  9993
2 40039  97.9296 163.5412 0010841 223.1388 136.8983 14.93948578605617
POLYITAN-1              
1 40042U 14033AJ  25227.93884303  .00013044  00000+0  60435-3 0  9999
2 40042  98.1068 223.1517 0011631 124.1886 236.0451 15.20182184607014
TIGRISAT                
1 40043U 14033AK  25228.40739214  .00001680  00000+0  20758-3 0  9990
2 40043  97.7436  21.5461 0050993 355.5112   4.5637 14.83222904600710
AEROCUBE 6A             
1 40045U 14033AM  25227.90377495  .00003926  00000+0  37739-3 0  9997
2 40045  97.6995  34.6661 0041579 317.1355  42.6625 14.92951347600980
AEROCUBE 6B             
1 40046U 14033AN  25227.91166680  .00004291  00000+0  40003-3 0  9995
2 40046  97.6969  33.9068 0040232 309.7486  50.0192 14.94152947601087
CANX-4                  
1 40055U 14034C   25228.14517206  .00000855  00000+0  11952-3 0  9999
2 40055  98.3551  86.6355 0011661 271.3294  88.6581 14.80349169599412
CANX-5                  
1 40056U 14034D   25228.34971738  .00000864  00000+0  12072-3 0  9990
2 40056  98.3552  86.8742 0011660 270.8265  89.1610 14.80363539599446
UKUBE-1                 
1 40074U 14037F   25228.40793617  .00007258  00000+0  49727-3 0  9999
2 40074  98.3977 196.7058 0003450 103.9534 256.2074 15.06400970602559
BRITE-PL2 (HEWELIUSZ)   
1 40119U 14049B   25228.25845059  .00001733  00000+0  17275-3 0  9998
2 40119  97.8933 333.6620 0015450  44.9281 315.3186 14.92820433596016
AEROCUBE 5C             
1 40965U 15058B   25227.91852018  .00002137  00000+0  19674-3 0  9997
2 40965  64.7678 130.6439 0155334 178.4720 181.6900 14.88902735320164
AEROCUBE 7              
1 40966U 15058C   25227.96844168  .00002960  00000+0  24925-3 0  9999
2 40966  64.7634 118.5876 0146711 178.4065 181.7547 14.92285277320357
FOX-1A (AO-85)          
1 40967U 15058D   25228.20039662  .00002059  00000+0  19462-3 0  9992
2 40967  64.7756 145.1398 0151471 173.0296 187.2973 14.88415883 68136
SINOD-D 1               
1 40968U 15058E   25228.10701984  .00003126  00000+0  26602-3 0  9995
2 40968  64.7759 131.9794 0140881 171.9270 188.4160 14.92356493 71079
SNAP-3 ALICE            
1 40970U 15058G   25228.21212792  .00025095  00000+0  98091-3 0  9994
2 40970  64.7656  44.3990 0072997 173.6678 186.5391 15.23338512 69963
LMRST-SAT               
1 40971U 15058H   25227.94985819  .00001929  00000+0  18352-3 0  9993
2 40971  64.7759 141.7321 0153941 174.6427 185.6378 14.88129154 68098
SNAP-3 EDDIE            
1 40972U 15058J   25227.45367788  .00029142  00000+0  11083-2 0  9999
2 40972  64.7575  39.2256 0077752 176.2622 183.9105 15.23845658 71966
PROPCUBE 3              
1 40973U 15058K   25228.07892737  .00002680  00000+0  23291-3 0  9999
2 40973  64.7688 123.8178 0148347 176.6455 183.5690 14.91172727 69250
BISONSAT                
1 40974U 15058L   25227.91695867  .00010016  00000+0  59000-3 0  9996
2 40974  64.7627  74.1903 0109854 175.2168 185.0031 15.07054950 69468
SNAP-3 JIMI             
1 40975U 15058M   25228.06522757  .00004654  00000+0  34613-3 0  9995
2 40975  64.7659 101.9430 0132565 175.7972 184.4292 14.97438640 68451
PROPCUBE 1 (FLORA)      
1 40976U 15058N   25228.23707090  .00001793  00000+0  17776-3 0  9992
2 40976  64.7747 158.8238 0153509 176.4309 183.7937 14.86833917 70882
SINOD-D 3               
1 40977U 15058P   25228.17167424  .00002706  00000+0  24146-3 0  9991
2 40977  64.7726 146.1232 0143120 175.7394 184.4976 14.90692134 69235
HORYU-4                 
1 41340U 16012D   25228.15793424  .00022564  00000+0  55054-3 0  9996
2 41340  30.9976  36.6022 0007497  43.7776 316.3464 15.39599016523205
RAVAN                   
1 41849U 16067B   25227.50262103  .00013936  00000+0  45253-3 0  9996
2 41849  98.0382  82.0989 0008824  11.9018 348.2429 15.32037600480580
CELTEE 1                
1 41850U 16067C   25227.80593595  .00004450  00000+0  24074-3 0  9992
2 41850  98.1039  68.7747 0001436 135.6547 224.4798 15.15235991479562
OPTICUBE 04             
1 41851U 16067D   25227.79783765  .00002460  00000+0  16587-3 0  9990
2 41851  98.0939  59.0533 0017697  71.0930 289.2213 15.07569359479124
AEROCUBE 8D             
1 41852U 16067E   25228.28836897  .00005727  00000+0  28187-3 0  9999
2 41852  98.1070  70.8318 0005276 103.3107 256.8714 15.18430026479709
AEROCUBE 8C             
1 41853U 16067F   25228.28806365  .00005911  00000+0  28947-3 0  9996
2 41853  98.0924  68.5050 0006769  43.2467 316.9295 15.18578623479699
PROMETHEUS 2-1          
1 41854U 16067G   25227.88519253  .00055482  00000+0  83441-3 0  9997
2 41854  98.0682  89.3982 0004976  27.2974 332.8538 15.54665045480840
